*******************************************************************************
JPL/HORIZONS               318 Magdalena (A891 SA)         2023-Sep-04 11:05:39
Rec #:     318 (+COV) Soln.date: 2023-Aug-23_07:41:34   # obs: 4920 (1891-2023)
 
IAU76/J2000 helio. ecliptic osc. elements (au, days, deg., period=Julian yrs):
 
  EPOCH=  2457066.5 ! 2015-Feb-13.00 (TDB)         Residual RMS= .27083
   EC= .08533749141146894  QR= 2.92218082505596    TP= 2456685.239081
   OM= 161.5084314513539   W=  297.1921250429926   IN= 10.6561323855531
   A= 3.194818632683816    MA= 65.80472087434983   ADIST= 3.467456440311672
   PER= 5.71054            N= .172597603           ANGMOM= .030634965
   DAN= 3.05251            DDN= 3.30025            L= 99.10773260000001
   B= -9.466875            MOID= 1.95805001        TP= 2014-Jan-27.7390810000
 
Asteroid physical parameters (km, seconds, rotational period in hours):
   GM= n.a.                RAD= 42.5               ROTPER= 42.65
   H= 9.52                 G= .150                 B-V= .685
                           ALBEDO= .054            STYP= CXF

ASTEROID comments: 
1: soln ref.= JPL#59, OCC=0
2: source=ORB
*******************************************************************************


*******************************************************************************
Ephemeris / API_USER Mon Sep  4 11:05:39 2023 Pasadena, USA      / Horizons
*******************************************************************************
Target body name: 318 Magdalena (A891 SA)         {source: JPL#59}
Center body name: Solar System Barycenter (0)     {source: DE441}
Center-site name: BODY CENTER
*******************************************************************************
Start time      : A.D. 2023-Aug-12 00:00:00.0000 TDB
Stop  time      : A.D. 2023-Aug-13 00:00:00.0000 TDB
Step-size       : 2880 minutes
*******************************************************************************
Center geodetic : 0.0, 0.0, 0.0                   {E-lon(deg),Lat(deg),Alt(km)}
Center cylindric: 0.0, 0.0, 0.0                   {E-lon(deg),Dxy(km),Dz(km)}
Center radii    : (undefined)
Small perturbers: Yes                             {source: SB441-N16}
Output units    : KM-S
Calendar mode   : Mixed Julian/Gregorian
Output type     : GEOMETRIC cartesian states
Output format   : 2 (position and velocity)
Reference frame : Ecliptic of J2000.0
*******************************************************************************
Initial IAU76/J2000 heliocentric ecliptic osculating elements (au, days, deg.):
  EPOCH=  2457066.5 ! 2015-Feb-13.00 (TDB)         Residual RMS= .27083        
   EC= .08533749141146894  QR= 2.92218082505596    TP= 2456685.239081          
   OM= 161.5084314513539   W=  297.1921250429926   IN= 10.6561323855531        
  Equivalent ICRF heliocentric cartesian coordinates (au, au/d):
   X=-3.081597381384285E+00  Y= 2.692906834571964E-01  Z= 2.498135876829233E-01
  VX=-1.805808016855741E-03 VY=-9.499304954649474E-03 VZ=-2.140309886997178E-03
Asteroid physical parameters (km, seconds, rotational period in hours):        
   GM= n.a.                RAD= 42.5               ROTPER= 42.65               
   H= 9.52                 G= .150                 B-V= .685                   
                           ALBEDO= .054            STYP= CXF                   
*******************************************************************************
JDTDB
   X     Y     Z
   VX    VY    VZ
*******************************************************************************
$$SOE
2460168.500000000 = A.D. 2023-Aug-12 00:00:00.0000 TDB 
 X = 4.388746361613814E+08 Y =-2.334243517483417E+08 Z = 1.534449842643353E+07
 VX= 6.380019505713757E+00 VY= 1.432002412534955E+01 VZ=-2.938795417064858E+00
$$EOE
*******************************************************************************
 
TIME

  Barycentric Dynamical Time ("TDB" or T_eph) output was requested. This
continuous coordinate time is equivalent to the relativistic proper time
of a clock at rest in a reference frame co-moving with the solar system
barycenter but outside the system's gravity well. It is the independent
variable in the solar system relativistic equations of motion.

  TDB runs at a uniform rate of one SI second per second and is independent
of irregularities in Earth's rotation.
 
CALENDAR SYSTEM

  Mixed calendar mode was active such that calendar dates after AD 1582-Oct-15
(if any) are in the modern Gregorian system. Dates prior to 1582-Oct-5 (if any)
are in the Julian calendar system, which is automatically extended for dates
prior to its adoption on 45-Jan-1 BC.  The Julian calendar is useful for
matching historical dates. The Gregorian calendar more accurately corresponds
to the Earth's orbital motion and seasons. A "Gregorian-only" calendar mode is
available if such physical events are the primary interest.

REFERENCE FRAME AND COORDINATES

  Ecliptic at the standard reference epoch

    Reference epoch: J2000.0
    X-Y plane: adopted Earth orbital plane at the reference epoch
               Note: IAU76 obliquity of 84381.448 arcseconds wrt ICRF X-Y plane
    X-axis   : ICRF
    Z-axis   : perpendicular to the X-Y plane in the directional (+ or -) sense
               of Earth's north pole at the reference epoch.

  Symbol meaning:

    JDTDB    Julian Day Number, Barycentric Dynamical Time
      X      X-component of position vector (km)
      Y      Y-component of position vector (km)
      Z      Z-component of position vector (km)
      VX     X-component of velocity vector (km/sec)                           
      VY     Y-component of velocity vector (km/sec)                           
      VZ     Z-component of velocity vector (km/sec)                           

ABERRATIONS AND CORRECTIONS

 Geometric state vectors have NO corrections or aberrations applied.

Computations by ...

    Solar System Dynamics Group, Horizons On-Line Ephemeris System
    4800 Oak Grove Drive, Jet Propulsion Laboratory
    Pasadena, CA  91109   USA

    General site: https://ssd.jpl.nasa.gov/
    Mailing list: https://ssd.jpl.nasa.gov/email_list.html
    System news : https://ssd.jpl.nasa.gov/horizons/news.html
    User Guide  : https://ssd.jpl.nasa.gov/horizons/manual.html
    Connect     : browser        https://ssd.jpl.nasa.gov/horizons/app.html#/x
                  API            https://ssd-api.jpl.nasa.gov/doc/horizons.html
                  command-line   telnet ssd.jpl.nasa.gov 6775
                  e-mail/batch   https://ssd.jpl.nasa.gov/ftp/ssd/hrzn_batch.txt
                  scripts        https://ssd.jpl.nasa.gov/ftp/ssd/SCRIPTS
    Author      : Jon.D.Giorgini@jpl.nasa.gov
*******************************************************************************
